[{"OBJECT_NAME":"YAM-7","OBJECT_ID":"2024-149AN","EPOCH":"2026-03-09T17:13:55.117920","MEAN_MOTION":15.30304554,"ECCENTRICITY":0.00019733,"INCLINATION":97.3828,"RA_OF_ASC_NODE":149.4631,"ARG_OF_PERICENTER":296.5121,"MEAN_ANOMALY":63.5918,"EPHEMERIS_TYPE":0,"CLASSIFICATION_TYPE":"U","NORAD_CAT_ID":60504,"ELEMENT_SET_NO":999,"REV_AT_EPOCH":8683,"BSTAR":0.00030984439,"MEAN_MOTION_DOT":9.009e-5,"MEAN_MOTION_DDOT":0},{"OBJECT_NAME":"STARLINK-36107","OBJECT_ID":"2025-288W","EPOCH":"2026-03-09T07:16:08.806944","MEAN_MOTION":15.27591966,"ECCENTRICITY":0.00013323,"INCLINATION":43.0022,"RA_OF_ASC_NODE":26.0239,"ARG_OF_PERICENTER":256.7609,"MEAN_ANOMALY":103.3094,"EPHEMERIS_TYPE":0,"CLASSIFICATION_TYPE":"U","NORAD_CAT_ID":66979,"ELEMENT_SET_NO":999,"REV_AT_EPOCH":1522,"BSTAR":0.00087468455,"MEAN_MOTION_DOT":0.00023894,"MEAN_MOTION_DDOT":0}]
